SL-14 R/B               
1 21423U 91042B   26036.95278249  .00000497  00000+0  59873-4 0  9996
2 21423  82.4901 249.9503 0016779 350.5828   9.5069 14.81799264848371
ERS-1                   
1 21574U 91050A   26036.93056462  .00000470  00000+0  16506-3 0  9997
2 21574  98.7896  54.3665 0030981 297.4130  62.3907 14.39423011811166
ARIANE 40 R/B           
1 21610U 91050F   26036.98767395  .00000420  00000+0  13838-3 0  9997
2 21610  98.2079  90.4035 0003657 151.9618 208.1770 14.42869744814423
INTERCOSMOS 25          
1 21819U 91086A   26036.87105769  .00001034  00000+0  20019-3 0  9997
2 21819  82.6087 329.2357 1486638 185.4817 172.8249 12.11912404492839
SL-8 R/B                
1 21876U 92008B   26036.79989246  .00000079  00000+0  65815-4 0  9998
2 21876  82.9270 291.5014 0033683 222.3491 203.0130 13.75969513705035
SL-8 R/B                
1 21938U 92020B   26036.91754548  .00000137  00000+0  12593-3 0  9999
2 21938  82.9325 177.3443 0029475  28.9013  93.6811 13.75544574696760
USA 81                  
1 21949U 92023A   26036.80355039  .00000326  00000+0  11339-3 0  9991
2 21949  85.0120 149.8263 0002565 106.0879 254.0596 14.32356054 90222
COSMOS 2219             
1 22219U 92076A   26036.61793090 -.00000151  00000+0 -54219-4 0  9995
2 22219  71.0587  85.1175 0020470 251.3623 108.5277 14.14077153713844
SL-16 R/B               
1 22220U 92076B   26036.93413849  .00000238  00000+0  14268-3 0  9996
2 22220  70.9981 255.2673 0011701 152.5080 306.8567 14.16854775717339
COSMOS 2221             
1 22236U 92080A   26036.80217769  .00003203  00000+0  28250-3 0  9998
2 22236  82.5061 309.6189 0013088 304.6483  55.3504 14.96072147776028
SL-16 R/B               
1 22285U 92093B   26036.58453788 -.00000180  00000+0 -67738-4 0  9992
2 22285  71.0203  71.6659 0005074 327.1779  32.9028 14.15441589708618
COSMOS 2228             
1 22286U 92094A   26036.90621145  .00003091  00000+0  26517-3 0  9995
2 22286  82.5157 267.7457 0019285  51.6723 308.6229 14.97044145771304
