CCSDS_OMM_VERS = 2.0
CREATION_DATE  = 
ORIGINATOR     = 

OBJECT_NAME    = SL-14 R/B
OBJECT_ID      = 1991-042B
CENTER_NAME    = EARTH
REF_FRAME      = TEME
TIME_SYSTEM    = UTC
MEAN_ELEMENT_THEORY = SGP/SGP4

EPOCH          = 2026-02-05T22:52:00.407136
MEAN_MOTION    = 14.81799264
ECCENTRICITY   = .00167797
INCLINATION    = 82.4901
RA_OF_ASC_NODE = 249.9503
ARG_OF_PERICENTER = 350.5828
MEAN_ANOMALY   = 9.5069

EPHEMERIS_TYPE = 0
CLASSIFICATION_TYPE = U
NORAD_CAT_ID   = 21423
ELEMENT_SET_NO = 999
REV_AT_EPOCH   = 84837
BSTAR          = .59872841E-4
MEAN_MOTION_DOT = .497E-5
MEAN_MOTION_DDOT = 0

CCSDS_OMM_VERS = 2.0
CREATION_DATE  = 
ORIGINATOR     = 

OBJECT_NAME    = ERS-1
OBJECT_ID      = 1991-050A
CENTER_NAME    = EARTH
REF_FRAME      = TEME
TIME_SYSTEM    = UTC
MEAN_ELEMENT_THEORY = SGP/SGP4

EPOCH          = 2026-02-05T22:20:00.783168
MEAN_MOTION    = 14.39423011
ECCENTRICITY   = .00309812
INCLINATION    = 98.7896
RA_OF_ASC_NODE = 54.3665
ARG_OF_PERICENTER = 297.4130
MEAN_ANOMALY   = 62.3907

EPHEMERIS_TYPE = 0
CLASSIFICATION_TYPE = U
NORAD_CAT_ID   = 21574
ELEMENT_SET_NO = 999
REV_AT_EPOCH   = 81116
BSTAR          = .16506126E-3
MEAN_MOTION_DOT = .47E-5
MEAN_MOTION_DDOT = 0

CCSDS_OMM_VERS = 2.0
CREATION_DATE  = 
ORIGINATOR     = 

OBJECT_NAME    = ARIANE 40 R/B
OBJECT_ID      = 1991-050F
CENTER_NAME    = EARTH
REF_FRAME      = TEME
TIME_SYSTEM    = UTC
MEAN_ELEMENT_THEORY = SGP/SGP4

EPOCH          = 2026-02-05T23:42:15.029280
MEAN_MOTION    = 14.42869744
ECCENTRICITY   = .00036577
INCLINATION    = 98.2079
RA_OF_ASC_NODE = 90.4035
ARG_OF_PERICENTER = 151.9618
MEAN_ANOMALY   = 208.1770

EPHEMERIS_TYPE = 0
CLASSIFICATION_TYPE = U
NORAD_CAT_ID   = 21610
ELEMENT_SET_NO = 999
REV_AT_EPOCH   = 81442
BSTAR          = .13837574E-3
MEAN_MOTION_DOT = .42E-5
MEAN_MOTION_DDOT = 0

CCSDS_OMM_VERS = 2.0
CREATION_DATE  = 
ORIGINATOR     = 

OBJECT_NAME    = INTERCOSMOS 25
OBJECT_ID      = 1991-086A
CENTER_NAME    = EARTH
REF_FRAME      = TEME
TIME_SYSTEM    = UTC
MEAN_ELEMENT_THEORY = SGP/SGP4

EPOCH          = 2026-02-05T20:54:19.384416
MEAN_MOTION    = 12.11912404
ECCENTRICITY   = .14866388
INCLINATION    = 82.6087
RA_OF_ASC_NODE = 329.2357
ARG_OF_PERICENTER = 185.4817
MEAN_ANOMALY   = 172.8249

EPHEMERIS_TYPE = 0
CLASSIFICATION_TYPE = U
NORAD_CAT_ID   = 21819
ELEMENT_SET_NO = 999
REV_AT_EPOCH   = 49283
BSTAR          = .20018643E-3
MEAN_MOTION_DOT = .1034E-4
MEAN_MOTION_DDOT = 0

CCSDS_OMM_VERS = 2.0
CREATION_DATE  = 
ORIGINATOR     = 

OBJECT_NAME    = SL-8 R/B
OBJECT_ID      = 1992-008B
CENTER_NAME    = EARTH
REF_FRAME      = TEME
TIME_SYSTEM    = UTC
MEAN_ELEMENT_THEORY = SGP/SGP4

EPOCH          = 2026-02-05T19:11:50.708544
MEAN_MOTION    = 13.75969513
ECCENTRICITY   = .00336831
INCLINATION    = 82.9270
RA_OF_ASC_NODE = 291.5014
ARG_OF_PERICENTER = 222.3491
MEAN_ANOMALY   = 203.0130

EPHEMERIS_TYPE = 0
CLASSIFICATION_TYPE = U
NORAD_CAT_ID   = 21876
ELEMENT_SET_NO = 999
REV_AT_EPOCH   = 70503
BSTAR          = .65814709E-4
MEAN_MOTION_DOT = .79E-6
MEAN_MOTION_DDOT = 0

CCSDS_OMM_VERS = 2.0
CREATION_DATE  = 
ORIGINATOR     = 

OBJECT_NAME    = SL-8 R/B
OBJECT_ID      = 1992-020B
CENTER_NAME    = EARTH
REF_FRAME      = TEME
TIME_SYSTEM    = UTC
MEAN_ELEMENT_THEORY = SGP/SGP4

EPOCH          = 2026-02-05T22:01:15.929472
MEAN_MOTION    = 13.75544574
ECCENTRICITY   = .00294753
INCLINATION    = 82.9325
RA_OF_ASC_NODE = 177.3443
ARG_OF_PERICENTER = 28.9013
MEAN_ANOMALY   = 93.6811

EPHEMERIS_TYPE = 0
CLASSIFICATION_TYPE = U
NORAD_CAT_ID   = 21938
ELEMENT_SET_NO = 999
REV_AT_EPOCH   = 69676
BSTAR          = .12593029E-3
MEAN_MOTION_DOT = .137E-5
MEAN_MOTION_DDOT = 0

CCSDS_OMM_VERS = 2.0
CREATION_DATE  = 
ORIGINATOR     = 

OBJECT_NAME    = USA 81
OBJECT_ID      = 1992-023A
CENTER_NAME    = EARTH
REF_FRAME      = TEME
TIME_SYSTEM    = UTC
MEAN_ELEMENT_THEORY = SGP/SGP4

EPOCH          = 2026-02-05T19:17:06.753696
MEAN_MOTION    = 14.32356054
ECCENTRICITY   = .00025652
INCLINATION    = 85.0120
RA_OF_ASC_NODE = 149.8263
ARG_OF_PERICENTER = 106.0879
MEAN_ANOMALY   = 254.0596

EPHEMERIS_TYPE = 0
CLASSIFICATION_TYPE = U
NORAD_CAT_ID   = 21949
ELEMENT_SET_NO = 999
REV_AT_EPOCH   = 9022
BSTAR          = .11338591E-3
MEAN_MOTION_DOT = .326E-5
MEAN_MOTION_DDOT = 0

CCSDS_OMM_VERS = 2.0
CREATION_DATE  = 
ORIGINATOR     = 

OBJECT_NAME    = COSMOS 2219
OBJECT_ID      = 1992-076A
CENTER_NAME    = EARTH
REF_FRAME      = TEME
TIME_SYSTEM    = UTC
MEAN_ELEMENT_THEORY = SGP/SGP4

EPOCH          = 2026-02-05T14:49:49.229760
MEAN_MOTION    = 14.14077153
ECCENTRICITY   = .002047
INCLINATION    = 71.0587
RA_OF_ASC_NODE = 85.1175
ARG_OF_PERICENTER = 251.3623
MEAN_ANOMALY   = 108.5277

EPHEMERIS_TYPE = 0
CLASSIFICATION_TYPE = U
NORAD_CAT_ID   = 22219
ELEMENT_SET_NO = 999
REV_AT_EPOCH   = 71384
BSTAR          = -.54219E-4
MEAN_MOTION_DOT = -.151E-5
MEAN_MOTION_DDOT = 0

CCSDS_OMM_VERS = 2.0
CREATION_DATE  = 
ORIGINATOR     = 

OBJECT_NAME    = SL-16 R/B
OBJECT_ID      = 1992-076B
CENTER_NAME    = EARTH
REF_FRAME      = TEME
TIME_SYSTEM    = UTC
MEAN_ELEMENT_THEORY = SGP/SGP4

EPOCH          = 2026-02-05T22:25:09.565536
MEAN_MOTION    = 14.16854775
ECCENTRICITY   = .0011701
INCLINATION    = 70.9981
RA_OF_ASC_NODE = 255.2673
ARG_OF_PERICENTER = 152.5080
MEAN_ANOMALY   = 306.8567

EPHEMERIS_TYPE = 0
CLASSIFICATION_TYPE = U
NORAD_CAT_ID   = 22220
ELEMENT_SET_NO = 999
REV_AT_EPOCH   = 71733
BSTAR          = .14267656E-3
MEAN_MOTION_DOT = .238E-5
MEAN_MOTION_DDOT = 0

CCSDS_OMM_VERS = 2.0
CREATION_DATE  = 
ORIGINATOR     = 

OBJECT_NAME    = COSMOS 2221
OBJECT_ID      = 1992-080A
CENTER_NAME    = EARTH
REF_FRAME      = TEME
TIME_SYSTEM    = UTC
MEAN_ELEMENT_THEORY = SGP/SGP4

EPOCH          = 2026-02-05T19:15:08.152416
MEAN_MOTION    = 14.96072147
ECCENTRICITY   = .00130887
INCLINATION    = 82.5061
RA_OF_ASC_NODE = 309.6189
ARG_OF_PERICENTER = 304.6483
MEAN_ANOMALY   = 55.3504

EPHEMERIS_TYPE = 0
CLASSIFICATION_TYPE = U
NORAD_CAT_ID   = 22236
ELEMENT_SET_NO = 999
REV_AT_EPOCH   = 77602
BSTAR          = .28250264E-3
MEAN_MOTION_DOT = .3203E-4
MEAN_MOTION_DDOT = 0

CCSDS_OMM_VERS = 2.0
CREATION_DATE  = 
ORIGINATOR     = 

OBJECT_NAME    = SL-16 R/B
OBJECT_ID      = 1992-093B
CENTER_NAME    = EARTH
REF_FRAME      = TEME
TIME_SYSTEM    = UTC
MEAN_ELEMENT_THEORY = SGP/SGP4

EPOCH          = 2026-02-05T14:01:44.072832
MEAN_MOTION    = 14.15441589
ECCENTRICITY   = .0005074
INCLINATION    = 71.0203
RA_OF_ASC_NODE = 71.6659
ARG_OF_PERICENTER = 327.1779
MEAN_ANOMALY   = 32.9028

EPHEMERIS_TYPE = 0
CLASSIFICATION_TYPE = U
NORAD_CAT_ID   = 22285
ELEMENT_SET_NO = 999
REV_AT_EPOCH   = 70861
BSTAR          = -.67738E-4
MEAN_MOTION_DOT = -.18E-5
MEAN_MOTION_DDOT = 0

CCSDS_OMM_VERS = 2.0
CREATION_DATE  = 
ORIGINATOR     = 

OBJECT_NAME    = COSMOS 2228
OBJECT_ID      = 1992-094A
CENTER_NAME    = EARTH
REF_FRAME      = TEME
TIME_SYSTEM    = UTC
MEAN_ELEMENT_THEORY = SGP/SGP4

EPOCH          = 2026-02-05T21:44:56.669280
MEAN_MOTION    = 14.97044145
ECCENTRICITY   = .00192857
INCLINATION    = 82.5157
RA_OF_ASC_NODE = 267.7457
ARG_OF_PERICENTER = 51.6723
MEAN_ANOMALY   = 308.6229

EPHEMERIS_TYPE = 0
CLASSIFICATION_TYPE = U
NORAD_CAT_ID   = 22286
ELEMENT_SET_NO = 999
REV_AT_EPOCH   = 77130
BSTAR          = .26517393E-3
MEAN_MOTION_DOT = .3091E-4
MEAN_MOTION_DDOT = 0

